[{"OBJECT_NAME":"CSTP 1.2 (STC 1.2)","OBJECT_ID":"2023-091W","EPOCH":"2026-03-09T23:12:27.821952","MEAN_MOTION":15.2718076,"ECCENTRICITY":0.00204388,"INCLINATION":97.5258,"RA_OF_ASC_NODE":134.3262,"ARG_OF_PERICENTER":84.9592,"MEAN_ANOMALY":275.3979,"EPHEMERIS_TYPE":0,"CLASSIFICATION_TYPE":"U","NORAD_CAT_ID":57186,"ELEMENT_SET_NO":999,"REV_AT_EPOCH":14930,"BSTAR":0.00043035718,"MEAN_MOTION_DOT":0.00011466,"MEAN_MOTION_DDOT":0},{"OBJECT_NAME":"STARLINK-30705","OBJECT_ID":"2023-148L","EPOCH":"2026-03-09T07:32:53.511936","MEAN_MOTION":15.30188481,"ECCENTRICITY":8.879e-5,"INCLINATION":53.1615,"RA_OF_ASC_NODE":26.1215,"ARG_OF_PERICENTER":94.163,"MEAN_ANOMALY":265.9473,"EPHEMERIS_TYPE":0,"CLASSIFICATION_TYPE":"U","NORAD_CAT_ID":57945,"ELEMENT_SET_NO":999,"REV_AT_EPOCH":13836,"BSTAR":2.4785645e-5,"MEAN_MOTION_DOT":3.75e-6,"MEAN_MOTION_DDOT":0}]
